NORAD_CAT_ID,OBJECT_NAME,OBJECT_TYPE,EPOCH,MEAN_MOTION,ECCENTRICITY,INCLINATION,RA_OF_ASC_NODE,ARG_OF_PERICENTER,MEAN_ANOMALY,BSTAR,MEAN_MOTION_DOT,MEAN_MOTION_DDOT,TLE_LINE0,TLE_LINE1,TLE_LINE2,SEMIMAJOR_AXIS,PERIOD,APOGEE,PERIGEE,DECAYED
49728.0,STARLINK-3240,PAYLOAD,2024-03-30 08:02:29,15.0881528,0.0001759,53.2172,103.5406,108.9855,251.1328,-0.00032955,-5.526e-05,0.0,0 STARLINK-3240,1 49728U 21115E   24090.33506165 -.00005526  00000-0 -32955-3 0  9991,2 49728  53.2172 103.5406 0001759 108.9855 251.1328 15.08815280128303,6917.956,95.439,541.038,538.604,0.0
49728.0,STARLINK-3240,PAYLOAD,2024-03-30 17:34:48,15.08824022,0.0001751,53.2178,101.7539,104.3516,255.7671,-0.00017874,-3.13e-05,0.0,0 STARLINK-3240,1 49728U 21115E   24090.73250045 -.00003130  00000-0 -17874-3 0  9990,2 49728  53.2178 101.7539 0001751 104.3516 255.7671 15.08824022129476,6917.929,95.439,541.006,538.583,0.0
49728.0,STARLINK-3240,PAYLOAD,2024-03-31 04:42:28,15.08856603,0.0001384,53.216,99.6704,103.6531,256.4616,0.00041371,6.305e-05,0.0,0 STARLINK-3240,1 49728U 21115E   24091.19616588  .00006305  00000-0  41371-3 0  9993,2 49728  53.2160  99.6704 0001384 103.6531 256.4616 15.08856603129542,6917.83,95.437,540.652,538.737,0.0
49728.0,STARLINK-3240,PAYLOAD,2024-03-31 09:28:37,15.08863149,0.0001569,53.2161,98.7775,95.9762,264.1409,0.00049712,7.637e-05,0.0,0 STARLINK-3240,1 49728U 21115E   24091.39488245  .00007637  00000-0  49712-3 0  9998,2 49728  53.2161  98.7775 0001569  95.9762 264.1409 15.08863149128464,6917.81,95.436,540.76,538.589,0.0
49728.0,STARLINK-3240,PAYLOAD,2024-03-31 17:25:33,15.08853766,0.0001872,53.2175,97.2906,88.8901,271.2305,0.00031989,4.809e-05,0.0,0 STARLINK-3240,1 49728U 21115E   24091.72608421  .00004809  00000-0  31989-3 0  9990,2 49728  53.2175  97.2906 0001872  88.8901 271.2305 15.08853766129629,6917.838,95.437,540.998,538.408,0.0
49728.0,STARLINK-3240,PAYLOAD,2024-04-01 09:19:25,15.08836497,0.0001607,53.2171,94.3184,87.7099,272.4077,0.00023434,3.443e-05,0.0,0 STARLINK-3240,1 49728U 21115E   24092.38849045  .00003443  00000-0  23434-3 0  9991,2 49728  53.2171  94.3184 0001607  87.7099 272.4077 15.08836497129725,6917.891,95.438,540.868,538.644,0.0
49728.0,STARLINK-3240,PAYLOAD,2024-04-02 09:10:11,15.08857339,0.0001431,53.216,89.8583,96.6253,263.4902,-9.6237e-05,-1.82e-05,0.0,0 STARLINK-3240,1 49728U 21115E   24093.38208039 -.00001820  00000-0 -96237-4 0  9995,2 49728  53.2160  89.8583 0001431  96.6253 263.4902 15.08857339129872,6917.827,95.436,540.682,538.702,0.0
49728.0,STARLINK-3240,PAYLOAD,2024-04-02 17:07:07,15.08850891,0.0001422,53.2162,88.3691,98.1095,262.0059,-0.00014313,-2.566e-05,0.0,0 STARLINK-3240,1 49728U 21115E   24093.71328248 -.00002566  00000-0 -14313-3 0  9999,2 49728  53.2162  88.3691 0001422  98.1095 262.0059 15.08850891129929,6917.847,95.437,540.696,538.728,0.0
49728.0,STARLINK-3240,PAYLOAD,2024-04-03 09:00:58,15.08842546,0.0001476,53.2162,85.3955,95.7994,264.3167,1.6195e-05,-3e-07,0.0,0 STARLINK-3240,1 49728U 21115E   24094.37568258 -.00000030  00000-0  16195-4 0  9993,2 49728  53.2162  85.3955 0001476  95.7994 264.3167 15.08842546128910,6917.873,95.437,540.759,538.717,0.0
49728.0,STARLINK-3240,PAYLOAD,2024-04-03 16:57:54,15.08841987,0.0001467,53.2174,83.9083,96.6887,263.4272,3.7896e-05,3.15e-06,0.0,0 STARLINK-3240,1 49728U 21115E   24094.70688149  .00000315  00000-0  37896-4 0  9998,2 49728  53.2174  83.9083 0001467  96.6887 263.4272 15.08841987128960,6917.874,95.437,540.754,538.724,0.0
49728.0,STARLINK-3240,PAYLOAD,2024-04-04 05:40:59,15.08842025,0.0001477,53.2171,81.5293,97.3078,262.8082,5.9595e-05,6.61e-06,0.0,0 STARLINK-3240,1 49728U 21115E   24095.23680030  .00000661  00000-0  59595-4 0  9992,2 49728  53.2171  81.5293 0001477  97.3078 262.8082 15.08842025130155,6917.874,95.437,540.761,538.717,0.0
49728.0,STARLINK-3240,PAYLOAD,2024-04-04 08:51:45,15.08841556,0.0001499,53.2173,80.9349,97.3913,262.7249,7.8529e-05,9.62e-06,0.0,0 STARLINK-3240,1 49728U 21115E   24095.36927994  .00000962  00000-0  78529-4 0  9991,2 49728  53.2173  80.9349 0001499  97.3913 262.7249 15.08841556129064,6917.876,95.437,540.778,538.704,0.0
49728.0,STARLINK-3240,PAYLOAD,2024-04-04 23:10:14,15.08834275,0.0001516,53.2169,78.2582,98.1753,261.9411,8.7607e-06,-1.49e-06,0.0,0 STARLINK-3240,1 49728U 21115E   24095.96544749 -.00000149  00000-0  87607-5 0  9996,2 49728  53.2169  78.2582 0001516  98.1753 261.9411 15.08834275129151,6917.898,95.438,540.812,538.714,0.0
49728.0,STARLINK-3240,PAYLOAD,2024-04-05 03:56:24,15.08834769,0.0001513,53.217,77.3661,98.1432,261.9732,1.0945e-05,-1.14e-06,0.0,0 STARLINK-3240,1 49728U 21115E   24096.16416760 -.00000114  00000-0  10945-4 0  9992,2 49728  53.2170  77.3661 0001513  98.1432 261.9732 15.08834769130293,6917.896,95.438,540.808,538.715,0.0
49728.0,STARLINK-3240,PAYLOAD,2024-04-05 08:42:33,15.08835598,0.0001517,53.2172,76.4742,97.9249,262.1915,9.1499e-06,-1.42e-06,0.0,0 STARLINK-3240,1 49728U 21115E   24096.36288754 -.00000142  00000-0  91499-5 0  9999,2 49728  53.2172  76.4742 0001517  97.9249 262.1915 15.08835598129219,6917.894,95.438,540.808,538.709,0.0
49728.0,STARLINK-3240,PAYLOAD,2024-04-05 21:25:38,15.08836459,0.0001504,53.2172,74.0953,97.8167,262.2996,1.2156e-05,-9.5e-07,0.0,0 STARLINK-3240,1 49728U 21115E   24096.89280765 -.00000095  00000-0  12156-4 0  9990,2 49728  53.2172  74.0953 0001504  97.8167 262.2996 15.08836459129296,6917.891,95.438,540.797,538.716,0.0
49728.0,STARLINK-3240,PAYLOAD,2024-04-06 05:22:33,15.08841206,0.0001399,53.2173,72.6101,90.8571,269.2581,5.505e-05,5.88e-06,0.0,0 STARLINK-3240,1 49728U 21115E   24097.22400374  .00000588  00000-0  55050-4 0  9994,2 49728  53.2173  72.6101 0001399  90.8571 269.2581 15.08841206130453,6917.877,95.437,540.71,538.774,0.0
49728.0,STARLINK-3240,PAYLOAD,2024-04-06 08:33:20,15.0884263,0.0001359,53.2175,72.0154,87.685,272.4297,4.8852e-05,4.9e-06,0.0,0 STARLINK-3240,1 49728U 21115E   24097.35648302  .00000490  00000-0  48852-4 0  9997,2 49728  53.2175  72.0154 0001359  87.6850 272.4297 15.08842630129367,6917.872,95.437,540.677,538.797,0.0
49728.0,STARLINK-3240,PAYLOAD,2024-04-06 14:54:52,15.08839947,0.0001397,53.217,70.8257,91.0487,269.0665,-6.2866e-06,-3.88e-06,0.0,0 STARLINK-3240,1 49728U 21115E   24097.62144637 -.00000388  00000-0 -62866-5 0  9999,2 49728  53.2170  70.8257 0001397  91.0487 269.0665 15.08839947129402,6917.881,95.438,540.712,538.779,0.0
49728.0,STARLINK-3240,PAYLOAD,2024-04-07 08:24:07,15.08847678,0.0001392,53.2172,67.5546,88.1082,272.0069,-5.0174e-05,-1.087e-05,0.0,0 STARLINK-3240,1 49728U 21115E   24098.35008446 -.00001087  00000-0 -50174-4 0  9992,2 49728  53.2172  67.5546 0001392  88.1082 272.0069 15.08847678130629,6917.857,95.437,540.685,538.759,0.0
49728.0,STARLINK-3240,PAYLOAD,2024-04-07 14:45:40,15.0883795,0.0001432,53.2178,66.3653,100.8256,259.2897,4.1691e-05,3.76e-06,0.0,0 STARLINK-3240,1 49728U 21115E   24098.61504848  .00000376  00000-0  41691-4 0  9990,2 49728  53.2178  66.3653 0001432 100.8256 259.2897 15.08837950130663,6917.887,95.438,540.742,538.761,0.0
49728.0,STARLINK-3240,PAYLOAD,2024-04-08 14:36:27,15.08841106,0.0001416,53.2182,61.9057,91.4205,268.695,-4.2372e-06,-3.55e-06,0.0,0 STARLINK-3240,1 49728U 21115E   24099.60865106 -.00000355  00000-0 -42372-5 0  9994,2 49728  53.2182  61.9057 0001416  91.4205 268.6950 15.08841106129703,6917.877,95.437,540.722,538.762,0.0
49728.0,STARLINK-3240,PAYLOAD,2024-04-09 03:19:32,15.08827836,0.0001387,53.218,59.5267,94.053,266.062,0.00019286,2.782e-05,0.0,0 STARLINK-3240,1 49728U 21115E   24100.13857580  .00002782  00000-0  19286-3 0  9992,2 49728  53.2180  59.5267 0001387  94.0530 266.0620 15.08827836130896,6917.918,95.438,540.742,538.823,0.0
49728.0,STARLINK-3240,PAYLOAD,2024-04-09 04:54:55,15.08841936,0.0001602,53.2183,59.2297,108.7295,251.3871,2.2425e-05,6.9e-07,0.0,0 STARLINK-3240,1 49728U 21115E   24100.20481055  .00000069  00000-0  22425-4 0  9996,2 49728  53.2183  59.2297 0001602 108.7295 251.3871 15.08841936130904,6917.874,95.437,540.848,538.631,0.0
49728.0,STARLINK-3240,PAYLOAD,2024-04-09 14:27:14,15.0883905,0.0001311,53.2172,57.4442,91.4099,268.7044,-7.9044e-06,-4.14e-06,0.0,0 STARLINK-3240,1 49728U 21115E   24100.60225356 -.00000414  00000-0 -79044-5 0  9996,2 49728  53.2172  57.4442 0001311  91.4099 268.7044 15.08839050129851,6917.883,95.438,540.655,538.841,0.0
49728.0,STARLINK-3240,PAYLOAD,2024-04-09 20:48:47,15.08836009,0.0001437,53.2169,56.2546,88.5275,271.5882,3.52e-05,2.72e-06,0.0,0 STARLINK-3240,1 49728U 21115E   24100.86721499  .00000272  00000-0  35200-4 0  9998,2 49728  53.2169  56.2546 0001437  88.5275 271.5882 15.08836009131004,6917.893,95.438,540.752,538.763,0.0
49728.0,STARLINK-3240,PAYLOAD,2024-04-10 03:10:20,15.08824456,0.0001393,53.2171,55.0651,92.1603,267.9549,0.00022766,3.336e-05,0.0,0 STARLINK-3240,1 49728U 21115E   24101.13217858  .00003336  00000-0  22766-3 0  9994,2 49728  53.2171  55.0651 0001393  92.1603 267.9549 15.08824456131044,6917.928,95.439,540.757,538.829,0.0
49728.0,STARLINK-3240,PAYLOAD,2024-04-10 14:18:01,15.08842494,0.0001368,53.2174,52.9839,87.6874,272.4275,6.6321e-05,7.68e-06,0.0,0 STARLINK-3240,1 49728U 21115E   24101.59585076  .00000768  00000-0  66321-4 0  9996,2 49728  53.2174  52.9839 0001368  87.6874 272.4275 15.08842494130006,6917.873,95.437,540.684,538.791,0.0
49728.0,STARLINK-3240,PAYLOAD,2024-04-10 20:39:34,15.08839628,0.0001415,53.2184,51.7949,88.1559,271.9595,5.0862e-05,5.22e-06,0.0,0 STARLINK-3240,1 49728U 21115E   24101.86081325  .00000522  00000-0  50862-4 0  9995,2 49728  53.2184  51.7949 0001415  88.1559 271.9595 15.08839628131156,6917.882,95.438,540.725,538.768,0.0
49728.0,STARLINK-3240,PAYLOAD,2024-04-11 14:08:49,15.08811071,0.0001462,53.2164,48.5228,86.0045,274.1114,0.00040749,6.198e-05,0.0,0 STARLINK-3240,1 49728U 21115E   24102.58946325  .00006198  00000-0  40749-3 0  9992,2 49728  53.2164  48.5228 0001462  86.0045 274.1114 15.08811071130150,6917.969,95.439,540.845,538.822,0.0
